NORAD_CAT_ID,OBJECT_NAME,OBJECT_TYPE,EPOCH,MEAN_MOTION,ECCENTRICITY,INCLINATION,RA_OF_ASC_NODE,ARG_OF_PERICENTER,MEAN_ANOMALY,BSTAR,MEAN_MOTION_DOT,MEAN_MOTION_DDOT,TLE_LINE0,TLE_LINE1,TLE_LINE2,SEMIMAJOR_AXIS,PERIOD,APOGEE,PERIGEE,DECAYED
51720.0,STARLINK-3526,PAYLOAD,2024-02-05 12:00:25,15.08839074,0.0001393,53.2171,155.1837,92.3276,267.7876,2.2778e-05,7.5e-07,0.0,0 STARLINK-3526,1 51720U 22016G   24036.50029589  .00000075  00000-0  22778-4 0  9991,2 51720  53.2171 155.1837 0001393  92.3276 267.7876 15.08839074109267,6917.883,95.438,540.712,538.785,0.0
51720.0,STARLINK-3526,PAYLOAD,2024-02-05 13:35:48,15.08840562,0.0001412,53.2171,154.8864,91.7137,268.4017,3.7158e-05,3.03e-06,0.0,0 STARLINK-3526,1 51720U 22016G   24036.56653476  .00000303  00000-0  37158-4 0  9997,2 51720  53.2171 154.8864 0001412  91.7137 268.4017 15.08840562108217,6917.879,95.438,540.72,538.767,0.0
51720.0,STARLINK-3526,PAYLOAD,2024-02-05 15:11:11,15.08844126,0.0001385,53.2173,154.5894,86.3645,273.7506,5.4296e-05,5.76e-06,0.0,0 STARLINK-3526,1 51720U 22016G   24036.63277243  .00000576  00000-0  54296-4 0  9993,2 51720  53.2173 154.5894 0001385  86.3645 273.7506 15.08844126108225,6917.868,95.437,540.691,538.775,0.0
51720.0,STARLINK-3526,PAYLOAD,2024-02-06 11:51:13,15.08833206,0.0001788,53.2177,150.7244,59.2875,300.8293,2.9066e-05,1.74e-06,0.0,0 STARLINK-3526,1 51720U 22016G   24037.49390478  .00000174  00000-0  29066-4 0  9995,2 51720  53.2177 150.7244 0001788  59.2875 300.8293 15.08833206109411,6917.901,95.438,541.003,538.529,0.0
51720.0,STARLINK-3526,PAYLOAD,2024-02-06 13:26:36,15.08854014,0.0001843,53.218,150.4274,62.7311,297.3868,-0.00024987,-4.264e-05,0.0,0 STARLINK-3526,1 51720U 22016G   24037.56013928 -.00004264  00000-0 -24987-3 0  9997,2 51720  53.2180 150.4274 0001843  62.7311 297.3868 15.08854014108362,6917.838,95.437,540.978,538.428,0.0
51720.0,STARLINK-3526,PAYLOAD,2024-02-06 15:01:59,15.08837207,0.0001472,53.2172,150.1284,72.0767,288.0386,4.1565e-05,3.74e-06,0.0,0 STARLINK-3526,1 51720U 22016G   24037.62638062  .00000374  00000-0  41565-4 0  9994,2 51720  53.2172 150.1284 0001472  72.0767 288.0386 15.08837207108376,6917.889,95.438,540.772,538.736,0.0
51720.0,STARLINK-3526,PAYLOAD,2024-02-07 11:41:59,15.08850484,0.0001379,53.2171,146.2624,68.6253,291.4887,-2.8128e-05,-7.36e-06,0.0,0 STARLINK-3526,1 51720U 22016G   24038.48749643 -.00000736  00000-0 -28128-4 0  9991,2 51720  53.2171 146.2624 0001379  68.6253 291.4887 15.08850484109564,6917.848,95.437,540.667,538.759,0.0
51720.0,STARLINK-3526,PAYLOAD,2024-02-07 14:52:45,15.08852778,0.0001368,53.2162,145.6711,79.0105,281.1041,9.1855e-05,1.175e-05,0.0,0 STARLINK-3526,1 51720U 22016G   24038.61997035  .00001175  00000-0  91855-4 0  9999,2 51720  53.2162 145.6711 0001368  79.0105 281.1041 15.08852778108525,6917.841,95.437,540.653,538.76,0.0
51720.0,STARLINK-3526,PAYLOAD,2024-02-08 00:25:05,15.08831044,0.0001208,53.2169,143.8837,90.9286,269.1845,3.827e-05,3.21e-06,0.0,0 STARLINK-3526,1 51720U 22016G   24039.01742542  .00000321  00000-0  38270-4 0  9999,2 51720  53.2169 143.8837 0001208  90.9286 269.1845 15.08831044109641,6917.908,95.438,540.608,538.937,0.0
51720.0,STARLINK-3526,PAYLOAD,2024-02-08 11:32:48,15.08827524,0.0001642,53.2173,141.802,88.7711,271.3469,-2.6418e-05,-7.08e-06,0.0,0 STARLINK-3526,1 51720U 22016G   24039.48111559 -.00000708  00000-0 -26418-4 0  9990,2 51720  53.2173 141.8020 0001642  88.7711 271.3469 15.08827524109711,6917.919,95.438,540.919,538.648,0.0
51720.0,STARLINK-3526,PAYLOAD,2024-02-08 13:08:11,15.08827537,0.0001582,53.2176,141.5049,89.2425,270.8748,-2.4632e-05,-6.8e-06,0.0,0 STARLINK-3526,1 51720U 22016G   24039.54735594 -.00000680  00000-0 -24632-4 0  9993,2 51720  53.2176 141.5049 0001582  89.2425 270.8748 15.08827537108664,6917.918,95.438,540.878,538.689,0.0
51720.0,STARLINK-3526,PAYLOAD,2024-02-09 11:23:33,15.0886107,0.0001603,53.2168,137.3476,84.5045,275.613,7.6855e-05,9.36e-06,0.0,0 STARLINK-3526,1 51720U 22016G   24040.47469185  .00000936  00000-0  76855-4 0  9993,2 51720  53.2168 137.3476 0001603  84.5045 275.6130 15.08861070109863,6917.816,95.436,540.79,538.572,0.0
51720.0,STARLINK-3526,PAYLOAD,2024-02-09 12:58:55,15.08869489,0.0001489,53.2167,137.0461,72.6302,287.4852,0.0001562,2.201e-05,0.0,0 STARLINK-3526,1 51720U 22016G   24040.54092464  .00002201  00000-0  15620-3 0  9992,2 51720  53.2167 137.0461 0001489  72.6302 287.4852 15.08869489108817,6917.79,95.436,540.685,538.625,0.0
51720.0,STARLINK-3526,PAYLOAD,2024-02-10 11:14:21,15.08846754,0.0001411,53.2166,132.8827,94.7862,265.3291,0.00030085,4.504e-05,0.0,0 STARLINK-3526,1 51720U 22016G   24041.46830146  .00004504  00000-0  30085-3 0  9991,2 51720  53.2166 132.8827 0001411  94.7862 265.3291 15.08846754110013,6917.86,95.437,540.701,538.749,0.0
51720.0,STARLINK-3526,PAYLOAD,2024-02-10 12:49:44,15.0885147,0.0001194,53.216,132.5764,102.0153,258.0973,0.00022387,3.278e-05,0.0,0 STARLINK-3526,1 51720U 22016G   24041.53453770  .00003278  00000-0  22387-3 0  9996,2 51720  53.2160 132.5764 0001194 102.0153 258.0973 15.08851470108966,6917.845,95.437,540.536,538.884,0.0
51720.0,STARLINK-3526,PAYLOAD,2024-02-10 16:00:30,15.0885184,0.0001341,53.2167,131.9842,103.2515,256.8627,0.00022038,3.222e-05,0.0,0 STARLINK-3526,1 51720U 22016G   24041.66701742  .00003222  00000-0  22038-3 0  9997,2 51720  53.2167 131.9842 0001341 103.2515 256.8627 15.08851840108987,6917.844,95.437,540.637,538.782,0.0
51720.0,STARLINK-3526,PAYLOAD,2024-02-11 12:40:30,15.08851965,0.0001628,53.2164,128.1176,113.0257,247.0907,-9.53e-05,-1.805e-05,0.0,0 STARLINK-3526,1 51720U 22016G   24042.52813184 -.00001805  00000-0 -95300-4 0  9997,2 51720  53.2164 128.1176 0001628 113.0257 247.0907 15.08851965109119,6917.844,95.437,540.835,538.583,0.0
51720.0,STARLINK-3526,PAYLOAD,2024-02-12 10:55:54,15.08852834,0.0001506,53.2169,123.9626,100.1789,259.9373,0.00018082,2.592e-05,0.0,0 STARLINK-3526,1 51720U 22016G   24043.45549010  .00002592  00000-0  18082-3 0  9997,2 51720  53.2169 123.9626 0001506 100.1789 259.9373 15.08852834109259,6917.841,95.437,540.748,538.664,0.0
51720.0,STARLINK-3526,PAYLOAD,2024-02-13 04:25:09,15.0883147,0.0002125,53.2159,120.6888,124.1414,235.9779,-0.00010931,-2.027e-05,0.0,0 STARLINK-3526,1 51720U 22016G   24044.18413962 -.00002027  00000-0 -10931-3 0  9994,2 51720  53.2159 120.6888 0002125 124.1414 235.9779 15.08831470110429,6917.906,95.438,541.242,538.301,0.0
51720.0,STARLINK-3526,PAYLOAD,2024-02-13 12:22:06,15.08830366,0.0001777,53.2168,119.2023,84.1218,275.9977,-5.4953e-05,-1.162e-05,0.0,0 STARLINK-3526,1 51720U 22016G   24044.51534764 -.00001162  00000-0 -54953-4 0  9997,2 51720  53.2168 119.2023 0001777  84.1218 275.9977 15.08830366109417,6917.91,95.438,541.004,538.546,0.0
51720.0,STARLINK-3526,PAYLOAD,2024-02-13 21:54:24,15.08837562,0.000165,53.2163,117.4161,97.773,262.345,0.00011518,1.545e-05,0.0,0 STARLINK-3526,1 51720U 22016G   24044.91278543  .00001545  00000-0  11518-3 0  9993,2 51720  53.2163 117.4161 0001650  97.7730 262.3450 15.08837562109471,6917.888,95.438,540.894,538.611,0.0
51720.0,STARLINK-3526,PAYLOAD,2024-02-14 12:12:52,15.08856252,0.0001721,53.2146,114.7426,94.6498,265.469,0.00071993,0.00011193,0.0,0 STARLINK-3526,1 51720U 22016G   24045.50893875  .00011193  00000-0  71993-3 0  9993,2 51720  53.2146 114.7426 0001721  94.6498 265.4690 15.08856252110628,6917.831,95.437,540.886,538.505,0.0
51720.0,STARLINK-3526,PAYLOAD,2024-02-14 21:45:11,15.08843256,0.000178,53.2158,112.9559,99.1441,260.9753,0.00032496,4.888e-05,0.0,0 STARLINK-3526,1 51720U 22016G   24045.90638455  .00004888  00000-0  32496-3 0  9996,2 51720  53.2158 112.9559 0001780  99.1441 260.9753 15.08843256109629,6917.87,95.437,540.967,538.504,0.0
51720.0,STARLINK-3526,PAYLOAD,2024-02-15 04:06:44,15.08829437,0.0001789,53.2148,111.7659,97.0161,263.1035,9.0644e-06,-1.44e-06,0.0,0 STARLINK-3526,1 51720U 22016G   24046.17135113 -.00000144  00000-0  90644-5 0  9992,2 51720  53.2148 111.7659 0001789  97.0161 263.1035 15.08829437110727,6917.913,95.438,541.015,538.54,0.0
51720.0,STARLINK-3526,PAYLOAD,2024-02-15 10:28:17,15.08834129,0.0002166,53.2153,110.5782,95.2343,264.8896,6.8171e-05,7.97e-06,0.0,0 STARLINK-3526,1 51720U 22016G   24046.43631064  .00000797  00000-0  68171-4 0  9999,2 51720  53.2153 110.5782 0002166  95.2343 264.8896 15.08834129109702,6917.898,95.438,541.262,538.265,0.0
51720.0,STARLINK-3526,PAYLOAD,2024-02-15 21:35:58,15.08842043,0.0001996,53.2143,108.4971,92.7297,267.3924,0.00016385,2.321e-05,0.0,0 STARLINK-3526,1 51720U 22016G   24046.89998836  .00002321  00000-0  16385-3 0  9996,2 51720  53.2143 108.4971 0001996  92.7297 267.3924 15.08842043109778,6917.874,95.437,541.12,538.358,0.0
51720.0,STARLINK-3526,PAYLOAD,2024-02-16 03:57:31,15.08849641,0.0001787,53.2132,107.3062,97.0228,263.0968,0.00028552,4.26e-05,0.0,0 STARLINK-3526,1 51720U 22016G   24047.16494430  .00004260  00000-0  28552-3 0  9991,2 51720  53.2132 107.3062 0001787  97.0228 263.0968 15.08849641110870,6917.851,95.437,540.952,538.48,0.0
51720.0,STARLINK-3526,PAYLOAD,2024-02-16 10:19:03,15.08859175,0.0001933,53.2134,106.1176,95.2857,264.8356,0.00084155,0.00013138,0.0,0 STARLINK-3526,1 51720U 22016G   24047.42990342  .00013138  00000-0  84155-3 0  9998,2 51720  53.2134 106.1176 0001933  95.2857 264.8356 15.08859175109855,6917.822,95.436,541.024,538.35,0.0
51720.0,STARLINK-3526,PAYLOAD,2024-02-17 10:09:50,15.08845624,0.0001784,53.2144,101.657,99.1044,261.015,0.00035818,5.418e-05,0.0,0 STARLINK-3526,1 51720U 22016G   24048.42350443  .00005418  00000-0  35818-3 0  9995,2 51720  53.2144 101.6570 0001784  99.1044 261.0150 15.08845624111060,6917.863,95.437,540.962,538.494,0.0
51720.0,STARLINK-3526,PAYLOAD,2024-02-17 13:20:37,15.08847271,0.0001772,53.2144,101.0621,99.2341,260.8851,0.00049728,7.637e-05,0.0,0 STARLINK-3526,1 51720U 22016G   24048.55598473  .00007637  00000-0  49728-3 0  9996,2 51720  53.2144 101.0621 0001772  99.2341 260.8851 15.08847271110029,6917.858,95.437,540.949,538.497,0.0
